NORAD_CAT_ID,OBJECT_NAME,OBJECT_TYPE,EPOCH,MEAN_MOTION,ECCENTRICITY,INCLINATION,RA_OF_ASC_NODE,ARG_OF_PERICENTER,MEAN_ANOMALY,BSTAR,MEAN_MOTION_DOT,MEAN_MOTION_DDOT,TLE_LINE0,TLE_LINE1,TLE_LINE2,SEMIMAJOR_AXIS,PERIOD,APOGEE,PERIGEE,DECAYED
51898.0,STARLINK-3597,PAYLOAD,2024-07-22 07:02:57,15.08843369,0.0001237,53.2159,151.9554,81.0999,279.0133,-5.4326e-05,-1.152e-05,0.0,0 STARLINK-3597,1 51898U 22022AY  24204.29372249 -.00001152  00000-0 -54326-4 0  9994,2 51898  53.2159 151.9554 0001237  81.0999 279.0133 15.08843369133411,6917.87,95.437,540.591,538.879,0.0
51898.0,STARLINK-3597,PAYLOAD,2024-07-23 13:15:17,15.08841188,0.0001231,53.2168,146.3079,94.4517,265.6616,8.5756e-05,1.077e-05,0.0,0 STARLINK-3597,1 51898U 22022AY  24205.55228228  .00001077  00000-0  85756-4 0  9996,2 51898  53.2168 146.3079 0001231  94.4517 265.6616 15.08841188133604,6917.877,95.437,540.593,538.89,0.0
51898.0,STARLINK-3597,PAYLOAD,2024-07-24 05:09:09,15.08836382,0.0001528,53.2169,143.331,82.0823,278.0342,4.4151e-05,4.15e-06,0.0,0 STARLINK-3597,1 51898U 22022AY  24206.21469213  .00000415  00000-0  44151-4 0  9990,2 51898  53.2169 143.3310 0001528  82.0823 278.0342 15.08836382133707,6917.891,95.438,540.814,538.699,0.0
51898.0,STARLINK-3597,PAYLOAD,2024-07-25 01:49:09,15.08850236,0.0001591,53.2171,139.4638,84.3936,275.7237,1.4034e-05,-6.5e-07,0.0,0 STARLINK-3597,1 51898U 22022AY  24207.07580521 -.00000065  00000-0  14034-4 0  9990,2 51898  53.2171 139.4638 0001591  84.3936 275.7237 15.08850236133834,6917.849,95.437,540.815,538.613,0.0
51898.0,STARLINK-3597,PAYLOAD,2024-07-26 01:39:56,15.08842466,0.0001675,53.2168,135.0039,85.5588,274.5595,0.00012362,1.68e-05,0.0,0 STARLINK-3597,1 51898U 22022AY  24208.06940768  .00001680  00000-0  12362-3 0  9997,2 51898  53.2168 135.0039 0001675  85.5588 274.5595 15.08842466133982,6917.873,95.437,540.897,538.579,0.0
51898.0,STARLINK-3597,PAYLOAD,2024-07-26 19:09:10,15.08849857,0.000154,53.2162,131.7356,104.6889,255.4273,0.00012374,1.682e-05,0.0,0 STARLINK-3597,1 51898U 22022AY  24208.79803965  .00001682  00000-0  12374-3 0  9999,2 51898  53.2162 131.7356 0001540 104.6889 255.4273 15.08849857134094,6917.85,95.437,540.781,538.65,0.0
51898.0,STARLINK-3597,PAYLOAD,2024-07-27 22:10:45,15.08830516,0.0001627,53.2163,126.6791,110.7892,249.3274,-2.0842e-05,-6.2e-06,0.0,0 STARLINK-3597,1 51898U 22022AY  24209.92413338 -.00000620  00000-0 -20842-4 0  9999,2 51898  53.2163 126.6791 0001627 110.7892 249.3274 15.08830516134263,6917.909,95.438,540.9,538.649,0.0
51898.0,STARLINK-3597,PAYLOAD,2024-07-28 01:21:31,15.08828201,0.0001249,53.2174,126.0879,90.3532,269.7604,-2.2122e-05,-6.4e-06,0.0,0 STARLINK-3597,1 51898U 22022AY  24210.05661570 -.00000640  00000-0 -22122-4 0  9993,2 51898  53.2174 126.0879 0001249  90.3532 269.7604 15.08828201134283,6917.916,95.438,540.646,538.917,0.0
51898.0,STARLINK-3597,PAYLOAD,2024-07-28 18:50:45,15.0887865,0.0001686,53.2174,122.812,80.8372,279.2811,-0.00069502,-0.00011344,0.0,0 STARLINK-3597,1 51898U 22022AY  24210.78524761 -.00011344  00000-0 -69502-3 0  9998,2 51898  53.2174 122.8120 0001686  80.8372 279.2811 15.08878650134398,6917.762,95.435,540.794,538.461,0.0
51898.0,STARLINK-3597,PAYLOAD,2024-07-28 22:01:32,15.08836546,0.0001379,53.2174,122.2215,86.0377,274.0772,-3.3429e-06,-3.41e-06,0.0,0 STARLINK-3597,1 51898U 22022AY  24210.91773327 -.00000341  00000-0 -33429-5 0  9993,2 51898  53.2174 122.2215 0001379  86.0377 274.0772 15.08836546134419,6917.891,95.438,540.71,538.802,0.0
51898.0,STARLINK-3597,PAYLOAD,2024-07-29 01:12:18,15.08840465,0.0001414,53.2174,121.6286,83.3668,276.7485,4.9352e-05,4.98e-06,0.0,0 STARLINK-3597,1 51898U 22022AY  24211.05021025  .00000498  00000-0  49352-4 0  9992,2 51898  53.2174 121.6286 0001414  83.3668 276.7485 15.08840465134430,6917.879,95.438,540.722,538.766,0.0
51898.0,STARLINK-3597,PAYLOAD,2024-07-29 10:44:37,15.0882969,0.0001454,53.2171,119.8446,83.8764,276.2394,0.00014605,2.037e-05,0.0,0 STARLINK-3597,1 51898U 22022AY  24211.44765346  .00002037  00000-0  14605-3 0  9999,2 51898  53.2171 119.8446 0001454  83.8764 276.2394 15.08829690134497,6917.912,95.438,540.783,538.771,0.0
51898.0,STARLINK-3597,PAYLOAD,2024-07-29 17:06:10,15.08829976,0.0001464,53.2172,118.6555,85.2005,274.9154,0.00014199,1.972e-05,0.0,0 STARLINK-3597,1 51898U 22022AY  24211.71261588  .00001972  00000-0  14199-3 0  9993,2 51898  53.2172 118.6555 0001464  85.2005 274.9154 15.08829976134532,6917.911,95.438,540.789,538.763,0.0
51898.0,STARLINK-3597,PAYLOAD,2024-07-29 21:52:19,15.08831201,0.0001456,53.2172,117.7634,85.5422,274.5737,0.00014524,2.024e-05,0.0,0 STARLINK-3597,1 51898U 22022AY  24211.91133651  .00002024  00000-0  14524-3 0  9995,2 51898  53.2172 117.7634 0001456  85.5422 274.5737 15.08831201134567,6917.907,95.438,540.78,538.765,0.0
51898.0,STARLINK-3597,PAYLOAD,2024-07-30 10:35:24,15.08841722,0.0001497,53.2177,115.3855,91.7028,268.4136,0.00015789,2.226e-05,0.0,0 STARLINK-3597,1 51898U 22022AY  24212.44125125  .00002226  00000-0  15789-3 0  9999,2 51898  53.2177 115.3855 0001497  91.7028 268.4136 15.08841722134640,6917.875,95.437,540.776,538.705,0.0
51898.0,STARLINK-3597,PAYLOAD,2024-07-30 23:18:29,15.08843577,0.0001542,53.2178,113.0067,97.7487,262.368,6.0076e-05,6.68e-06,0.0,0 STARLINK-3597,1 51898U 22022AY  24212.97117348  .00000668  00000-0  60076-4 0  9993,2 51898  53.2178 113.0067 0001542  97.7487 262.3680 15.08843577134723,6917.869,95.437,540.801,538.668,0.0
51898.0,STARLINK-3597,PAYLOAD,2024-07-31 10:26:11,15.08845093,0.0001506,53.2173,110.9241,79.6146,280.5016,8.4028e-05,1.05e-05,0.0,0 STARLINK-3597,1 51898U 22022AY  24213.43485118  .00001050  00000-0  84028-4 0  9997,2 51898  53.2173 110.9241 0001506  79.6146 280.5016 15.08845093134796,6917.865,95.437,540.772,538.688,0.0
51898.0,STARLINK-3597,PAYLOAD,2024-07-31 21:33:54,15.08821427,0.0001425,53.2177,108.8383,82.202,277.9134,7.68e-05,9.34e-06,0.0,0 STARLINK-3597,1 51898U 22022AY  24213.89854719  .00000934  00000-0  76800-4 0  9993,2 51898  53.2177 108.8383 0001425  82.2020 277.9134 15.08821427134868,6917.937,95.439,540.788,538.816,0.0
51898.0,STARLINK-3597,PAYLOAD,2024-07-31 23:09:17,15.08833326,0.0001408,53.2164,108.5432,79.6955,280.4196,-7.6705e-05,-1.508e-05,0.0,0 STARLINK-3597,1 51898U 22022AY  24213.96478423 -.00001508  00000-0 -76705-4 0  9999,2 51898  53.2164 108.5432 0001408  79.6955 280.4196 15.08833326134873,6917.901,95.438,540.74,538.792,0.0
51898.0,STARLINK-3597,PAYLOAD,2024-08-01 00:44:40,15.08837157,0.0001558,53.2173,108.2444,94.5155,265.6015,-3.7139e-05,-8.79e-06,0.0,0 STARLINK-3597,1 51898U 22022AY  24214.03102052 -.00000879  00000-0 -37139-4 0  9998,2 51898  53.2173 108.2444 0001558  94.5155 265.6015 15.08837157134889,6917.889,95.438,540.832,538.676,0.0
51898.0,STARLINK-3597,PAYLOAD,2024-08-01 10:16:58,15.08846474,0.0001508,53.2177,106.4638,81.8567,278.2596,5.4563e-05,5.81e-06,0.0,0 STARLINK-3597,1 51898U 22022AY  24214.42845256  .00000581  00000-0  54563-4 0  9999,2 51898  53.2177 106.4638 0001508  81.8567 278.2596 15.08846474134942,6917.861,95.437,540.769,538.682,0.0
51898.0,STARLINK-3597,PAYLOAD,2024-08-01 23:00:02,15.08853885,0.0001471,53.2168,104.0855,71.4021,288.7131,0.00016725,2.376e-05,0.0,0 STARLINK-3597,1 51898U 22022AY  24214.95836504  .00002376  00000-0  16725-3 0  9994,2 51898  53.2168 104.0855 0001471  71.4021 288.7131 15.08853885135021,6917.838,95.437,540.721,538.685,0.0
51898.0,STARLINK-3597,PAYLOAD,2024-08-02 10:07:45,15.08846774,0.0001668,53.2145,102.0072,59.0388,301.0768,0.00013085,1.795e-05,0.0,0 STARLINK-3597,1 51898U 22022AY  24215.42205257  .00001795  00000-0  13085-3 0  9992,2 51898  53.2145 102.0072 0001668  59.0388 301.0768 15.08846774135092,6917.86,95.437,540.879,538.571,0.0
51898.0,STARLINK-3597,PAYLOAD,2024-08-02 21:15:28,15.08829958,0.0001661,53.2172,99.9134,101.0889,259.029,0.00010718,1.418e-05,0.0,0 STARLINK-3597,1 51898U 22022AY  24215.88574221  .00001418  00000-0  10718-3 0  9994,2 51898  53.2172  99.9134 0001661 101.0889 259.0290 15.08829958135167,6917.911,95.438,540.925,538.627,0.0
51898.0,STARLINK-3597,PAYLOAD,2024-08-02 22:50:51,15.08824988,0.0001475,53.218,99.6196,86.8929,273.2232,8.2979e-05,1.032e-05,0.0,0 STARLINK-3597,1 51898U 22022AY  24215.95198649  .00001032  00000-0  82979-4 0  9999,2 51898  53.2180  99.6196 0001475  86.8929 273.2232 15.08824988135172,6917.926,95.439,540.812,538.771,0.0
51898.0,STARLINK-3597,PAYLOAD,2024-08-03 21:06:14,15.08849604,0.0001569,53.2168,95.4599,79.8669,280.25,6.5267e-05,7.51e-06,0.0,0 STARLINK-3597,1 51898U 22022AY  24216.87933387  .00000751  00000-0  65267-4 0  9995,2 51898  53.2168  95.4599 0001569  79.8669 280.2500 15.08849604135310,6917.851,95.437,540.801,538.631,0.0
51898.0,STARLINK-3597,PAYLOAD,2024-08-03 22:41:37,15.08847057,0.0001364,53.2166,95.1597,86.2745,273.8403,0.00021945,3.207e-05,0.0,0 STARLINK-3597,1 51898U 22022AY  24216.94557595  .00003207  00000-0  21945-3 0  9999,2 51898  53.2166  95.1597 0001364  86.2745 273.8403 15.08847057135324,6917.859,95.437,540.667,538.78,0.0
51898.0,STARLINK-3597,PAYLOAD,2024-08-04 20:57:01,15.08843672,0.0001441,53.2167,90.9976,82.6205,277.4951,0.00029337,4.385e-05,0.0,0 STARLINK-3597,1 51898U 22022AY  24217.87293976  .00004385  00000-0  29337-3 0  9993,2 51898  53.2167  90.9976 0001441  82.6205 277.4951 15.08843672135468,6917.869,95.437,540.731,538.737,0.0
51898.0,STARLINK-3597,PAYLOAD,2024-08-04 22:32:25,15.08843512,0.0001377,53.216,90.7,73.936,286.1784,0.00030591,4.584e-05,0.0,0 STARLINK-3597,1 51898U 22022AY  24217.93918036  .00004584  00000-0  30591-3 0  9996,2 51898  53.2160  90.7000 0001377  73.9360 286.1784 15.08843512135475,6917.87,95.437,540.687,538.782,0.0
51898.0,STARLINK-3597,PAYLOAD,2024-08-05 01:43:10,15.0885571,0.0001336,53.2153,90.1045,80.7351,279.3792,0.00039759,6.048e-05,0.0,0 STARLINK-3597,1 51898U 22022AY  24218.07165375  .00006048  00000-0  39759-3 0  9994,2 51898  53.2153  90.1045 0001336  80.7351 279.3792 15.08855710135499,6917.832,95.437,540.622,538.773,0.0
